{"type":"FeatureCollection","features":[{"type":"Feature","properties":{"Bedrijventerrein":"Donkersloot Noord (2)","Wijk":"Donkersloot"},"geometry":{"coordinates":[[[4.616175351734647,51.88398427691142],[4.6159717555907775,51.88370125141371],[4.615444147427713,51.88310329709377],[4.614979399796482,51.882597612898365],[4.614214546230727,51.881716067115434],[4.613812485668348,51.88136087006721],[4.613251010573208,51.88087451251895],[4.612763609677302,51.8805025621551],[4.612043641451123,51.880197303302126],[4.611188744640415,51.879832116200824],[4.610521224294114,51.87961297385063],[4.610159691081584,51.879566623002034],[4.60978517400185,51.879516677811466],[4.6096453629639385,51.87949356375239],[4.609609139742481,51.87946021452846],[4.609571464565655,51.87941283443716],[4.609482205704873,51.87936315057198],[4.609373230513834,51.879308859229795],[4.609339567836754,51.87921959501465],[4.608896712819064,51.87920205424946],[4.608883761540056,51.87918199828579],[4.608903474438012,51.87915969141481],[4.609007167461705,51.87914057023431],[4.60904512395193,51.87909843289984],[4.609007894584323,51.878931533414715],[4.608855719284179,51.878869377223],[4.608567617118894,51.87876968219692],[4.608129170607327,51.878763251462544],[4.60791195167387,51.87865735876473],[4.607832079070988,51.87847021088973],[4.607772601020912,51.878056057598855],[4.607156748833077,51.87760504300461],[4.606846110712496,51.877521450395506],[4.606611664091666,51.8773304695411],[4.60642299958171,51.877150087559144],[4.606236429353544,51.877076669456926],[4.606035015056589,51.87704454848186],[4.605778280709952,51.877011249868495],[4.605371636940951,51.87697056099806],[4.605061952615117,51.87686798553719],[4.604797395314932,51.87671936212911],[4.604602804478745,51.876071103984444],[4.604572965218336,51.87535139637552],[4.604285610021721,51.87535152245551],[4.604232594962415,51.875332708425205],[4.604194606993254,51.87529317097853],[4.604152652128036,51.875157767978024],[4.6041091508521035,51.87501854602089],[4.604059463925864,51.874940426226885],[4.606770886731084,51.874898636388394],[4.607490126134067,51.87491191431366],[4.608292525723158,51.874941125871686],[4.6089389046918825,51.875029479126596],[4.610049833671894,51.87502754258199],[4.612842992964957,51.875051991728256],[4.614814524942396,51.87505801993287],[4.6153930927705,51.875061034035184],[4.615667695776295,51.87504280345908],[4.6160325686443,51.87493429776679],[4.6163745007693535,51.8747319615582],[4.616989542798393,51.874260013911766],[4.617508326151977,51.87386461305235],[4.6178965440819155,51.87356084200523],[4.618196753976058,51.87327174729857],[4.618419982534558,51.87312631446159],[4.6185801240563364,51.873055241061365],[4.6188916224762195,51.87299209158244],[4.619326136594065,51.87311710089432],[4.619625947596203,51.873165441951095],[4.619989870016787,51.87325743409524],[4.620588642863893,51.87340789385475],[4.621429929366705,51.873710006920085],[4.622331822431676,51.87401211998542],[4.623054192793418,51.87423397509823],[4.622402448164934,51.87513614296647],[4.6226389684518665,51.8752151279562],[4.622633062494998,51.87541337939939],[4.622482044882176,51.87603612447002],[4.62233054555719,51.87663274410758],[4.62139561589882,51.87809802880423],[4.620312591960982,51.87983403939798],[4.619181991216919,51.88158041512486],[4.618852638942855,51.88213379076035],[4.61839834248245,51.88262896253917],[4.616175351734647,51.88398427691142]]],"type":"Polygon"}},{"type":"Feature","properties":{"Wijk":"Donkersloot","Bedrijventerrein":"Donkersloot Noord (1)"},"geometry":{"coordinates":[[[4.615165905126304,51.8874964792158],[4.61510944656419,51.88755419914895],[4.615012644452008,51.887515084495675],[4.615202040441915,51.887322621042955],[4.6155331982788255,51.88695723597209],[4.615710123596244,51.8866099170684],[4.615758872957372,51.88641961338172],[4.615669358667276,51.88582093974557],[4.615716989187035,51.88525218213809],[4.616021247702264,51.8851019854018],[4.61931878368631,51.88301562474885],[4.619603688998325,51.88273894860538],[4.621208399502294,51.88013657457179],[4.623596100306678,51.8806949557769],[4.622045974455119,51.88314052977927],[4.622728240562957,51.883366071227506],[4.622260849149887,51.883865658750125],[4.620832768132193,51.88541222178152],[4.620698559976958,51.88538601854286],[4.620638999415217,51.885480452060705],[4.620449915543938,51.88544082846046],[4.620302175944425,51.88574827600927],[4.620191067780496,51.88593702373868],[4.620048624181553,51.886065326961216],[4.619979175638141,51.88603972929249],[4.620007256143403,51.88593970545896],[4.6179741980759275,51.8851596230443],[4.6177040854679205,51.88536147500821],[4.618445508935139,51.885649446783276],[4.6182590832363815,51.885797238062025],[4.619529120869828,51.8864454824523],[4.61971879971,51.8863110127748],[4.619779351395991,51.88632885089348],[4.619604632483686,51.886494492896645],[4.619551341625183,51.88653647323616],[4.618201348747569,51.88585029592784],[4.61793736799817,51.88605043801046],[4.616987668366038,51.886764811250764],[4.617250516553582,51.886916151482154],[4.61673492986597,51.88731422591894],[4.6163605456051755,51.88757396408832],[4.6159705463897325,51.88743008684436],[4.615838303415309,51.887560117613965],[4.615917866970765,51.88759331590079],[4.615776102771578,51.88772888290182],[4.615165905126304,51.8874964792158]]],"type":"Polygon"},"id":1},{"type":"Feature","properties":{"Wijk":"Rijsoord","Bedrijventerrein":"Nieuw Reijerwaard "},"geometry":{"coordinates":[[[4.556045343424643,51.86735361206678],[4.5559937835046185,51.867224469544624],[4.55599682902735,51.867093454099916],[4.556090920824829,51.86701204115457],[4.556389164788385,51.86681726921353],[4.5566797156851635,51.866623747249164],[4.556927795685198,51.86647143659414],[4.557363551482609,51.86630738849385],[4.557620125296367,51.86623411319536],[4.557740185510482,51.866230148782705],[4.55784075869974,51.8662484457071],[4.558135226410593,51.86571966799019],[4.558305315062075,51.8654981089563],[4.558499877858829,51.86520485555595],[4.558603841709768,51.86516535423603],[4.55906962843423,51.865416051948586],[4.559382530835535,51.86520170472721],[4.561037617077233,51.8639911242162],[4.562855570989006,51.862618891937586],[4.562694341525213,51.862530850577315],[4.563460135471354,51.86203204016559],[4.563240236493815,51.86190057644291],[4.563194612495771,51.86182528980642],[4.563760321096709,51.86132986607154],[4.564320948041356,51.860916530902415],[4.564866058385064,51.86119579480882],[4.567059211670738,51.859592761024174],[4.569437834886202,51.857752430601096],[4.570324467215357,51.85801239606022],[4.571554643998468,51.85840318697021],[4.582856372944832,51.866144521287936],[4.582315181626399,51.866457340275126],[4.58167775396501,51.866841470165056],[4.5801719314108595,51.867496822259966],[4.577832159977902,51.8682951597321],[4.576887800755927,51.86844038945689],[4.575808710653462,51.86867476141569],[4.574877087879287,51.8690397447329],[4.57437649998846,51.86925984559994],[4.573301625445396,51.86972659262764],[4.571268566063935,51.870610789240374],[4.571062719865537,51.8706621176004],[4.570703334582987,51.87074567835904],[4.569996847142761,51.87090142379057],[4.569661239365296,51.87092084485546],[4.5690124118483055,51.87094216195382],[4.568132383133673,51.87095825203784],[4.5676559124750895,51.870925967922574],[4.5673454716696185,51.87084571871264],[4.5666849617451675,51.87066687672622],[4.565222685935765,51.87025610357006],[4.563605783263682,51.86980372780768],[4.562019588408475,51.86935703954305],[4.56094135005619,51.86906481453977],[4.56052894528959,51.86905239723151],[4.5601893405103695,51.86893795637154],[4.559520908823998,51.868736643337996],[4.5593052704856945,51.86858483309586],[4.55812099001156,51.86816950280145],[4.556045343424643,51.86735361206678]]],"type":"Polygon"},"id":2},{"type":"Feature","properties":{"Wijk":"Cornelisland","Bedrijventerrein":"Cornelisland"},"geometry":{"coordinates":[[[4.556160216133179,51.869460625985596],[4.556756719500585,51.86977469416245],[4.5573906567195515,51.87013759725993],[4.558007172240513,51.870474432438414],[4.558633536376284,51.87078649045329],[4.56105167326136,51.87197474313085],[4.562164219988102,51.87249904097146],[4.56325311538442,51.873001689958734],[4.563813874351963,51.87329993053672],[4.564327112565753,51.873612686105005],[4.564682405239887,51.87386237218704],[4.565008596430118,51.87413378424583],[4.565262722976389,51.874356976420515],[4.565477629156113,51.87458625042737],[4.565834879677354,51.8750211223599],[4.5660752647528895,51.87540640875869],[4.566255912474958,51.875760866019334],[4.566386788459873,51.87606574446767],[4.566488456080762,51.87640104985081],[4.566612797168062,51.87708424064368],[4.566261206318757,51.877349486928395],[4.565840628144429,51.877833628535654],[4.565549891542787,51.878322220073926],[4.5648315683514795,51.878243381857374],[4.564784068932028,51.87829991242868],[4.564680405487849,51.878331701344834],[4.564555658525563,51.8783335912845],[4.56444402973662,51.87830641880217],[4.564160636655487,51.878297057427375],[4.563438285431076,51.87829081689944],[4.562805715237488,51.878303250456554],[4.562478653574985,51.878280609047465],[4.562159397817084,51.87832076448018],[4.561623351617925,51.87823629096499],[4.5613675461949015,51.878177510984756],[4.561584653070511,51.87768141424863],[4.560762263004648,51.877304576048004],[4.560448301275969,51.87716808500117],[4.560318592213832,51.87709890215251],[4.560283820910485,51.87703554366689],[4.5603201340512385,51.876945677621194],[4.560312461997551,51.87686024766701],[4.560194585939449,51.87676996785316],[4.559829131956278,51.87667152733222],[4.559027879673607,51.87648964861742],[4.558972598313782,51.87645511778999],[4.558944638561789,51.87641499453526],[4.5589547476879595,51.8763541602781],[4.559022104269836,51.87619869640243],[4.558982877476879,51.87612900334527],[4.558897945451633,51.87607828509945],[4.558069264235485,51.875871571476964],[4.5571331185003885,51.87566695479765],[4.557054518171729,51.875669068821296],[4.5569788699637925,51.875633924322784],[4.55678854840987,51.875626215896375],[4.556596868364998,51.8756085485218],[4.556519702018914,51.87558095920606],[4.556466943557268,51.87554436534952],[4.556394655954847,51.87555705244334],[4.556313884014628,51.87554473556275],[4.55626718175418,51.87547458307617],[4.556145057307006,51.875421469443516],[4.556002194806979,51.87532104540482],[4.5554962610465,51.87517422613064],[4.555413871483495,51.87492643089875],[4.555381330571663,51.87467227274931],[4.555188038922324,51.87453163618292],[4.554863721311136,51.87450483166006],[4.554225446171657,51.87432515100987],[4.554232945651439,51.874240553003105],[4.554110629919471,51.874132768739535],[4.553975050971729,51.873917550578085],[4.553834450056527,51.87375230719739],[4.553582042092387,51.87364939212463],[4.553341687073377,51.873612825051346],[4.5530569575754924,51.873583102725135],[4.552824865414754,51.873603622569306],[4.552626615681472,51.873672275187076],[4.55230819763603,51.87382964294668],[4.55183869174985,51.87391525282388],[4.551561615671204,51.87400877381705],[4.551327962171399,51.87419371078921],[4.551130153837363,51.87431094090728],[4.550888670021237,51.874339798066984],[4.549628351658015,51.87398588129699],[4.549463443093657,51.873837523580406],[4.549977403482416,51.87318480601925],[4.550189032063578,51.872972550877144],[4.550282982788573,51.87262109437286],[4.550542914064721,51.872331293190484],[4.550687878772649,51.872164056527126],[4.55141257221527,51.87131550871058],[4.551583293469548,51.87112314173808],[4.552714875839712,51.86959610034353],[4.553931823279431,51.86851627174053],[4.554101778355381,51.868580809095555],[4.554925010469631,51.86890790970547],[4.5555571410496825,51.869171777131136],[4.556160216133179,51.869460625985596]]],"type":"Polygon"},"id":3},{"type":"Feature","properties":{"Wijk":"Donkersloot","Bedrijventerrein":"Ridderhaven"},"geometry":{"coordinates":[[[4.621208729826719,51.88013174684471],[4.623753101699634,51.87618677237805],[4.623623055150404,51.876113117290686],[4.623911857153928,51.875912772651816],[4.623806906562663,51.87582667125082],[4.623754368885976,51.875745224405776],[4.6238919338608895,51.87552813581354],[4.624151481628758,51.875172841746746],[4.626959812986911,51.87595092168962],[4.627165375922004,51.875665755560064],[4.628153725138787,51.876024945659736],[4.62734051200394,51.87705116442925],[4.6269567113002665,51.87756484218349],[4.625898637205637,51.87895304322046],[4.625178921448267,51.879989959104265],[4.624586324830631,51.88091123159302],[4.621208729826719,51.88013174684471]]],"type":"Polygon"},"id":4},{"type":"Feature","properties":{"Wijk":"Oost","Bedrijventerrein":"De Groenenwaert"},"geometry":{"coordinates":[[[4.596378660841793,51.86119621985435],[4.5960996734336845,51.860970550253114],[4.596053050393124,51.8609318998914],[4.596016732944179,51.86088926070863],[4.59601156710238,51.86082845192885],[4.5960276849976935,51.860191941812005],[4.596023629431727,51.859871549090364],[4.596019871002596,51.85969745795681],[4.596031688378616,51.85956932643538],[4.596155012002242,51.859468212532846],[4.59624955606661,51.859411242568115],[4.596361406578353,51.85937992462735],[4.596423834401449,51.85940333231727],[4.596690478316219,51.85958706507594],[4.596766417946924,51.85959488167799],[4.596779074552273,51.859751213433185],[4.596994236841908,51.8597473051459],[4.596994236841908,51.85982156254576],[4.596987908540655,51.86038825971903],[4.597171429316035,51.860548496935536],[4.597286527318744,51.86054492350149],[4.597284796674131,51.860817796147586],[4.596378660841793,51.86119621985435]]],"type":"Polygon"},"id":5},{"type":"Feature","properties":{"Wijk":"Verenambacht","Bedrijventerrein":"Verenambacht"},"geometry":{"coordinates":[[[4.5625699979740375,51.856094143426446],[4.566832850101349,51.857298004630024],[4.565920899035831,51.858570249168],[4.565631574846577,51.85848518040396],[4.564972790972746,51.85919748884473],[4.564383392434394,51.85978880983538],[4.564085926464514,51.86001537519171],[4.56405478474619,51.86008152425626],[4.564055386556589,51.86016707414565],[4.56407870313727,51.86024030785037],[4.564148051070504,51.86031760275176],[4.564179552419162,51.86042201098583],[4.564106528341732,51.8605473156889],[4.5639384981542115,51.860691190597706],[4.563731012522084,51.860849279234856],[4.563615767442627,51.86092451258165],[4.563303750483101,51.861140387451144],[4.562518643555109,51.86172975810777],[4.56247530096968,51.861803286058745],[4.5623747187870975,51.8618359888568],[4.5622455168066764,51.86186046225062],[4.562141460371148,51.86188285145132],[4.562076280339026,51.861855466360055],[4.561977931247454,51.86179507213588],[4.561896021925634,51.861757013981475],[4.561581514376769,51.862004780188286],[4.561529475121688,51.86207993132053],[4.561500167540203,51.86218045223018],[4.561434692468083,51.86226066811781],[4.561310007229608,51.86229913982696],[4.561135874183101,51.86230619275043],[4.560974892952373,51.86228075786957],[4.560523932699937,51.862646353713075],[4.5602534633884915,51.86288748628844],[4.560167119487119,51.862976334578434],[4.5602707812488745,51.86300866260366],[4.5600990312752145,51.86319741496063],[4.559657669096794,51.86308566058196],[4.5592596652422515,51.86358972779786],[4.559756823544745,51.86375600384389],[4.559825797716044,51.863871567175224],[4.5594131230940675,51.86420548461877],[4.558914973798693,51.86462305217697],[4.558446179857498,51.864983032672995],[4.558336468847045,51.86506167224829],[4.558068176467786,51.86520283776085],[4.557716993710388,51.86534766062121],[4.557642226770613,51.86537040881288],[4.557567838666511,51.86537766940707],[4.55751121278745,51.86550009849708],[4.5574216439935125,51.86547074759309],[4.5572824714121865,51.86541021662799],[4.557119615864262,51.8653515137105],[4.556956654825248,51.86529036739505],[4.556772830539426,51.86521560397933],[4.556677536066353,51.86514285548371],[4.556617203426228,51.865037575563235],[4.556649066839583,51.86486138172967],[4.556775708865246,51.86461472083286],[4.556838913673801,51.86450641053207],[4.557384779897461,51.86372439901484],[4.557975263509036,51.862959021231546],[4.558735858174089,51.86184102178302],[4.559653488150445,51.860499345808876],[4.560683201083663,51.85919635383999],[4.560911242900488,51.858686760540564],[4.560951905536768,51.85839368360939],[4.561137298566678,51.8580404702935],[4.562253347817403,51.85657311669513],[4.5625699979740375,51.856094143426446]]],"type":"Polygon"},"id":6},{"type":"Feature","properties":{"Wijk":"Donkersloot","Bedrijventerrein":"Donkersloot Zuid"},"geometry":{"coordinates":[[[4.6182039209821255,51.87237742745057],[4.617759687125414,51.872743083713154],[4.617358896150392,51.87306046022546],[4.61660075707519,51.87362279402748],[4.616239855481567,51.873807629930354],[4.615870265311685,51.87397100867713],[4.615083297805882,51.874233394844794],[4.6143825505634055,51.87437787058066],[4.6136948361833845,51.874449929244946],[4.610684814567492,51.87442315768476],[4.609826295656319,51.87439200268568],[4.609093008070783,51.87438418094407],[4.6082826365420075,51.87437635937387],[4.60771251907029,51.87444179648174],[4.607662879163399,51.87437173251389],[4.607203874287251,51.874376139152616],[4.606384737979397,51.87437966023586],[4.604430391350405,51.87435468692118],[4.60301509994585,51.87435552449196],[4.603127198495372,51.87370738242865],[4.6031462738865905,51.87355008360694],[4.603172862165188,51.873380724899846],[4.603118439463991,51.87316481825505],[4.603137056735534,51.872993549836735],[4.603145936146458,51.87286888025028],[4.603170660652276,51.872688262913826],[4.603208908356798,51.87251970577665],[4.6032822625554815,51.8724809570747],[4.603425965797896,51.87217338812121],[4.603514916733673,51.87190835220182],[4.603582221687077,51.87191562161824],[4.60361133748161,51.871545793618125],[4.603617000118987,51.87147593623643],[4.603514129484893,51.87147167037115],[4.603512738788993,51.87144458404293],[4.603223924162528,51.871435679667634],[4.603253656012967,51.8713358573511],[4.6032920836261155,51.87121785332394],[4.603318111706322,51.87102785308571],[4.603347144941509,51.870824864496704],[4.6034022062569875,51.87073060955352],[4.603434995936574,51.870633847503214],[4.603518873259318,51.87060388344862],[4.603588960350976,51.87061075336874],[4.604305710905788,51.87070855061974],[4.605151683147078,51.87103828484158],[4.6052629158525775,51.87108915238632],[4.605446979746647,51.87117397829754],[4.605544402290764,51.87121885209436],[4.6057370539274345,51.87130589106912],[4.606104809586554,51.87147455179678],[4.607010857883523,51.8718887771045],[4.607188680152035,51.87196713904743],[4.607509442259005,51.87210270705987],[4.608018801036856,51.87178213025721],[4.608538242342391,51.87146682092411],[4.608949189334901,51.87121801454389],[4.609337055092652,51.87099974617456],[4.609911915547144,51.87092168153721],[4.610558934760746,51.870888224664576],[4.61125374114124,51.87086817940198],[4.6120722863163195,51.870891120442394],[4.612468526040324,51.870902590961634],[4.612856077188013,51.87089260293757],[4.613400344991064,51.87087658532684],[4.613866415612961,51.870914214080216],[4.6142386835793445,51.87099843119245],[4.6150931674990545,51.871291868333884],[4.6182039209821255,51.87237742745057]]],"type":"Polygon"},"id":7},{"type":"Feature","properties":{"Wijk":"Bolnes","Bedrijventerrein":"De Boelewerf"},"geometry":{"coordinates":[[[4.58073215240546,51.89936877595713],[4.581474102562993,51.89993695857817],[4.581445046117214,51.900016680766996],[4.581190475094109,51.900153138436885],[4.580439452154181,51.90051129156416],[4.579436111674738,51.90099546908553],[4.579399242946209,51.90099552902433],[4.579378811506743,51.90098695486837],[4.5793636641733215,51.900949195694345],[4.579346227280201,51.900953898676235],[4.579351070770565,51.900981354232634],[4.579042800871531,51.9011304915451],[4.579035381419791,51.90115333076659],[4.579011934225946,51.90117388780607],[4.578970065459783,51.901188621710816],[4.578898607013425,51.90120639851761],[4.578060932003041,51.90140582662852],[4.577679131547029,51.901501256578186],[4.577165410432144,51.90163091890557],[4.577080949006817,51.901625935995824],[4.577062143456294,51.90176722003492],[4.5761987991136905,51.901724410637996],[4.57621604466614,51.90156990847336],[4.5756180563552675,51.90153780536028],[4.575628230984222,51.90145229883208],[4.57584402402577,51.901451651825596],[4.575825392249925,51.900913615614186],[4.575822153004964,51.900371015022046],[4.575871095268354,51.89978039322693],[4.575999040402706,51.89976576147173],[4.576464411844853,51.899805441035475],[4.576892731083291,51.89983622955987],[4.577452765687326,51.89981865013051],[4.577942812795868,51.89979726026604],[4.5782019206820905,51.899783869255415],[4.578234727203267,51.899768282722796],[4.57826553965478,51.89975921931482],[4.5795190748340815,51.89969172912342],[4.579858014369478,51.89964075582836],[4.580163342218256,51.89956446314247],[4.5804353965773075,51.8994767807979],[4.58073215240546,51.89936877595713]]],"type":"Polygon"},"id":8},{"type":"Feature","properties":{"Wijk":"Bolnes","Bedrijventerrein":"Bolnes (Ringdijk)"},"geometry":{"coordinates":[[[4.5835787352338855,51.895454266486524],[4.584352611093962,51.89474740723824],[4.584747806831906,51.89436849754165],[4.585123734350589,51.89404224640401],[4.586172829126468,51.893072864956196],[4.586692170407957,51.892617938649636],[4.587337142236223,51.892158621377774],[4.588136259813581,51.89174007412478],[4.588855974503915,51.89144272082338],[4.589431391292074,51.891264064526084],[4.5896046259016465,51.89146080840125],[4.590036605160606,51.89168813075339],[4.5892439636177045,51.89231060004806],[4.5886440464111615,51.89305263236825],[4.589441036976112,51.893439755305344],[4.589659127124406,51.89357163752342],[4.589352855089018,51.89367305016472],[4.5890419542253085,51.89380017179295],[4.588320834678441,51.89422376181422],[4.587625173680209,51.894634497458185],[4.58702156011158,51.89507427803967],[4.586865806611428,51.895020778592],[4.5867151381106765,51.8951522969268],[4.586496440231372,51.89526982143853],[4.586331161985669,51.895518864101604],[4.585994587601135,51.89540138863228],[4.585763013160758,51.89563774659547],[4.5855541942043985,51.89576642156142],[4.5854447967631415,51.8958145353314],[4.5853708800808874,51.89583396814126],[4.585300514426052,51.895844357366414],[4.585222413850204,51.89584342583882],[4.585122292451587,51.8958356998645],[4.584626299042121,51.895777711203934],[4.584311977404852,51.895697640521746],[4.583994903167387,51.89561672044442],[4.583810216323254,51.89555587696398],[4.583675207560587,51.89549827722671],[4.5835787352338855,51.895454266486524]]],"type":"Polygon"},"id":9},{"type":"Feature","properties":{"Wijk":"Donkersloot","Bedrijventerrein":"Ridderpark"},"geometry":{"coordinates":[[[4.608176260451813,51.87167876169957],[4.607811601958417,51.8719020184995],[4.607506878377535,51.8721007931081],[4.607023330313297,51.87189177011129],[4.605147589034459,51.87103389272261],[4.604308243047569,51.870705602771864],[4.6046361702865966,51.870435763303846],[4.604735904924041,51.870350842170396],[4.604858480083578,51.870388798881436],[4.605322737397756,51.87002892968778],[4.6050287764307996,51.86983579862981],[4.6045752248457745,51.86967077396474],[4.60479547874327,51.86948054880597],[4.605275008547359,51.869676874228944],[4.605643687967984,51.869837453036325],[4.605864731268355,51.86969757847132],[4.606528930885872,51.86936268763384],[4.607145774870048,51.869053211086296],[4.60708449186896,51.869011857016055],[4.6074027073703405,51.86882839797153],[4.60776695613157,51.86862528535261],[4.608232694352054,51.86895548988667],[4.608329678515155,51.86909186860139],[4.608395309239437,51.86932030592656],[4.60841442079078,51.869485249367415],[4.608501763250885,51.86962810115014],[4.608726614412042,51.87000943650709],[4.608880662409224,51.8702545271805],[4.609028689353488,51.87047382343427],[4.609184738170569,51.870707263839876],[4.609325784102481,51.87100272130451],[4.608951560110796,51.8712106070237],[4.608176260451813,51.87167876169957]]],"type":"Polygon"},"id":10},{"type":"Feature","properties":{"Wijk":"Oost","Bedrijventerrein":"Oost"},"geometry":{"coordinates":[[[4.604171466061047,51.86694279908434],[4.6053880050812666,51.867666239408436],[4.605093584338405,51.86793620829798],[4.605576461315053,51.86814550619266],[4.605440692374913,51.86830888378361],[4.605203388219991,51.86858508953344],[4.6043806213347125,51.86946109469082],[4.604005060706157,51.86927753099036],[4.604143184623425,51.869154141610224],[4.603817189498393,51.869022236695294],[4.603562545183138,51.86911933989856],[4.602970979352165,51.86931029513789],[4.6025846450996255,51.86874055652535],[4.602735004136974,51.86868826030934],[4.602301573705375,51.8680136121223],[4.601933732248597,51.86811928824514],[4.601540580812667,51.86761132040729],[4.602836854595779,51.86725807672266],[4.603501865194289,51.86707800858585],[4.603968027964996,51.86695500894167],[4.604072244050762,51.866932530618236],[4.604171466061047,51.86694279908434]]],"type":"Polygon"},"id":11}]}
