{"type":"FeatureCollection","features":[{"type":"Feature","properties":{"Naam":"Donkersloot Noord 2 "},"geometry":{"coordinates":[[[4.6183777576107445,51.882624974744715],[4.615209006408435,51.88104152697338],[4.615239184991481,51.88063168434613],[4.609686325742047,51.879215835614616],[4.609686325742047,51.87871282598914],[4.608630075341267,51.878619675440945],[4.608418825260912,51.87878734628862],[4.60805668226638,51.878731456075684],[4.607845432186025,51.87850789452827],[4.607875610769042,51.87806076809841],[4.607151324779835,51.877539114977054],[4.6062459672933755,51.87709197891286],[4.604797395314932,51.87671936212911],[4.60446543090336,51.87545244196738],[4.604133466491817,51.87493075858404],[4.606940074699537,51.874818968500136],[4.608992218335857,51.874818968500136],[4.610018290153619,51.87506117999743],[4.615782399483379,51.875154337918104],[4.616989542798393,51.874260013911766],[4.618136328947372,51.873999166059235],[4.6188606149366365,51.87297439199094],[4.623085616539726,51.874260013911766],[4.6226027592138905,51.875284758682994],[4.622361330550518,51.87664483840203],[4.62139561589882,51.87809802880423],[4.619162400766044,51.88156313945822],[4.6183777576107445,51.882624974744715]]],"type":"Polygon"}},{"type":"Feature","properties":{"Name":"Donkersloot Zuid"},"geometry":{"coordinates":[[[4.618169166679735,51.87240693197046],[4.616631167090418,51.87364425126327],[4.615139773548151,51.874262898142774],[4.613974622344756,51.874449929244946],[4.6112015624780724,51.874521864076996],[4.609663562888699,51.87455063797776],[4.608148866322239,51.87455063797776],[4.6026027465902075,51.874449929244946],[4.6026959586857,51.87373057459462],[4.602859079855108,51.87295365864654],[4.603068807071622,51.872176729275765],[4.603325140336466,51.871227130705705],[4.603534867552952,51.870594053852216],[4.605958382057935,51.87173070820239],[4.607542987695638,51.872493257677064],[4.608148866322239,51.872651521042],[4.6095237447435125,51.872766621321006],[4.609780078008356,51.8706659948505],[4.610420911172184,51.87083055787819],[4.611248168526885,51.87093756832189],[4.612856077188013,51.87089260293757],[4.614044531416113,51.87091957871317],[4.6150931674990545,51.871291868333884],[4.618169166679735,51.87240693197046]]],"type":"Polygon"}},{"type":"Feature","properties":{"Name":"De Groenenwaert"},"geometry":{"coordinates":[[[4.596380391486406,51.86118553193205],[4.596089289564645,51.86098230702376],[4.59605131974854,51.86091586791187],[4.596032334840487,51.860833795932706],[4.5960576480512145,51.85955970695804],[4.596361406578353,51.85937992462735],[4.596690478316219,51.85958706507594],[4.596766417946924,51.85959488167799],[4.596779074552273,51.859751213433185],[4.596994236841908,51.8597473051459],[4.596994236841908,51.85982156254576],[4.596987908540655,51.86038825971903],[4.597171429316916,51.86054849693548],[4.5972726821597405,51.86055240515316],[4.5972726821597405,51.860822071352004],[4.596380391486406,51.86118553193205]]],"type":"Polygon"},"id":2},{"type":"Feature","properties":{"Name":"Donkersloot Noord 2"},"geometry":{"coordinates":[[[4.614583708178998,51.887681176097004],[4.614958853051775,51.88747635062376],[4.615305140626475,51.8872091855599],[4.615593713605136,51.88694201890851],[4.615723571446296,51.8865946998871],[4.615781286041511,51.886461114933354],[4.615651428201232,51.88585552483107],[4.615824571988583,51.88573084350293],[4.61588228658465,51.885169773247185],[4.616805720116702,51.884608695987396],[4.617411723372015,51.8848491585278],[4.6179600120321425,51.88515196137823],[4.617714725000582,51.88537460923169],[4.618465014745226,51.885641785199795],[4.618263013659799,51.885802090018814],[4.619576020714504,51.886487831955975],[4.61755600986217,51.88812644564433],[4.615896715232793,51.88855390026009],[4.614583708178998,51.887681176097004]]],"type":"Polygon"}},{"type":"Feature","properties":{"Name":"Nieuw Reijerwaard "},"geometry":{"coordinates":[[[4.555911863458647,51.867445399853864],[4.555823911801127,51.86717587626836],[4.555884633607121,51.86698206936845],[4.55621928119578,51.86674983237083],[4.556682071202999,51.86650702849451],[4.557354450575929,51.86627928950472],[4.5578680614196685,51.86620723379528],[4.559127267510576,51.865356106230195],[4.559382530835535,51.86520170472721],[4.561037617077233,51.8639911242162],[4.56314565134079,51.86241305779052],[4.563915095248774,51.86176399895609],[4.564278797359634,51.861512833571425],[4.564722856093496,51.861724789039386],[4.565092775747274,51.86153946309861],[4.5674405090532275,51.859764601584885],[4.569860353607993,51.858038843001395],[4.569187512313448,51.8577922634629],[4.56995591504824,51.85717293669555],[4.570527674259324,51.85673687314559],[4.570970760634708,51.8564078207358],[4.571199051782088,51.856212693437044],[4.571619802102958,51.856116585502804],[4.572193054257355,51.8562066511067],[4.5726749978172165,51.856309529264536],[4.573162127577433,51.85642650601676],[4.573603603041249,51.856549888797275],[4.574161807347963,51.85666430482672],[4.574581496835435,51.85676109109471],[4.574997552049155,51.85688062675817],[4.575490909183742,51.8569819018079],[4.575788172871086,51.85700690811473],[4.576071429883001,51.8570264666545],[4.576531076711376,51.8570361003369],[4.5778218356940386,51.85698841649642],[4.57847551328436,51.85697082353826],[4.5790757572774226,51.85693848885245],[4.5794638188032195,51.85688403546652],[4.579792219358211,51.85683054053001],[4.580157984152521,51.856682843679835],[4.580983415436236,51.8563816852336],[4.581705083379319,51.856124738617694],[4.582424158221841,51.85586074103276],[4.583270864725819,51.855519524465365],[4.583844156203298,51.855283394096716],[4.584385800057049,51.85505911702586],[4.584994884185278,51.854855029263945],[4.585831729043832,51.85455225692999],[4.586124297623968,51.85479291703271],[4.586385631031135,51.855927571871945],[4.586607576811758,51.85672671746755],[4.586613745201163,51.857200296496416],[4.586712302680382,51.857305077249805],[4.586744454862412,51.8575229601407],[4.586698211164787,51.858115080396516],[4.586494240109317,51.85883310507532],[4.586383149237804,51.85941206866053],[4.586273099539454,51.859961227905785],[4.586246088039701,51.860246699742476],[4.5863399504117695,51.86056709817427],[4.586520445933189,51.86092722673604],[4.586736223349305,51.86125275213641],[4.586897506333031,51.86175640681324],[4.5868087515169975,51.862102416666914],[4.5867459473655,51.86235583525962],[4.586613827640946,51.86284724203],[4.585256632092012,51.86373066843345],[4.582248793306235,51.865406865715045],[4.58191866465998,51.865723977093666],[4.579681126051554,51.86676589873977],[4.577370225520809,51.867445399853864],[4.5752794107555985,51.868781722099044],[4.571354547951955,51.87057097276286],[4.5701073952851345,51.8708653995958],[4.567649770911146,51.8708880477341],[4.565228827499709,51.87018595014976],[4.5620375839109215,51.8693479483625],[4.560093492988955,51.86896291527901],[4.555911863458647,51.867445399853864]]],"type":"Polygon"},"id":4},{"type":"Feature","properties":{"Name":"De Boelewerf"},"geometry":{"coordinates":[[[4.58079129338509,51.899375215830105],[4.581512370255098,51.899915492598836],[4.579349139646325,51.90103839999864],[4.579005769709056,51.90116551982257],[4.5771000665549195,51.90162102957106],[4.575503396343976,51.90153628392105],[4.575675081311914,51.90145153811113],[4.575898271772388,51.90143035163348],[4.575949777262309,51.900371015022046],[4.575911828152613,51.900075803890644],[4.575864919900056,51.89979436484555],[4.576962718579779,51.89980955648977],[4.57807867087692,51.89978836923777],[4.579881363049992,51.89966124551697],[4.58079129338509,51.899375215830105]]],"type":"Polygon"}},{"type":"Feature","properties":{"Name":"Ridderhaven"},"geometry":{"coordinates":[[[4.621289015599672,51.88007392551083],[4.62362959555648,51.8764420979671],[4.6240882227106965,51.87654949492625],[4.62446777621733,51.87616872273145],[4.623993334333591,51.87595392673765],[4.623819372309782,51.87573912971777],[4.624151481628758,51.875172841746746],[4.626966503468424,51.875934399778146],[4.626333914291337,51.876871684264586],[4.626049249160928,51.87680334126418],[4.6258594724076545,51.87702789644578],[4.623455633532728,51.880630389295305],[4.621289015599672,51.88007392551083]]],"type":"Polygon"},"id":6},{"type":"Feature","properties":{"Name":"Ringdijk (Bolnes)"},"geometry":{"coordinates":[[[4.582410418005594,51.899077798179775],[4.581819463379873,51.8987982340808],[4.5826467998560645,51.89806892824333],[4.582449814981231,51.8975948731007],[4.582804387756454,51.896962791796284],[4.583001372632424,51.89682908114989],[4.582863483219342,51.89669537010599],[4.58347413633345,51.89571075834613],[4.5851485077742495,51.894057534519504],[4.586172829126468,51.893072864956196],[4.586923389030176,51.89239710274143],[4.58811148638992,51.89165003938794],[4.588844964093838,51.89142573304049],[4.589313029378083,51.89161061532168],[4.590009079134745,51.891779864174005],[4.590564096653139,51.89140941979382],[4.591648800079355,51.891028098628055],[4.592844266960952,51.89079270873435],[4.594043229159752,51.89058822690541],[4.595577225003041,51.890230315670266],[4.596691235118072,51.88996385106333],[4.597784682575991,51.88969741779509],[4.599144111917752,51.889493519645185],[4.600056375486659,51.88958845266909],[4.601082631291774,51.889550495703986],[4.601389184732255,51.889494603772164],[4.602236237309057,51.889554839485626],[4.604400003391447,51.88972669339037],[4.605049348609157,51.88974945789022],[4.605473424770736,51.889664523293504],[4.605832965334372,51.889686556052254],[4.606612315553306,51.88965565066216],[4.607280617646495,51.889612996159386],[4.60780498410432,51.88961776367066],[4.608809297766214,51.88969779338356],[4.6092574467489555,51.88968902600149],[4.610060391033841,51.88966045991964],[4.610117545810198,51.889901059064755],[4.610033128603803,51.88992656207526],[4.610037549899175,51.889971646817514],[4.60888327382014,51.89006907793464],[4.6088996766712285,51.89021080509076],[4.607489031540098,51.89030191516943],[4.6075054343902195,51.89043351829096],[4.606701694723,51.890504381349956],[4.606636083321575,51.89023105179123],[4.604224864318979,51.89030191516943],[4.604405295673132,51.89077770924692],[4.604463206010621,51.89088769643345],[4.6037763980428394,51.890999474510636],[4.603322707550092,51.891071281802795],[4.601157531303102,51.89134460625189],[4.599435231653558,51.891617929169456],[4.5992876060005585,51.891233252178125],[4.596794372746444,51.89197223401084],[4.595728187473554,51.892306290303566],[4.59428473664218,51.89252899311856],[4.593841859682357,51.89244801040434],[4.592693660156897,51.892620098497474],[4.592152366095405,51.89287316802617],[4.591053375121305,51.893085745328364],[4.589659127124406,51.89357163752342],[4.588970207409886,51.893804456612],[4.587625173680209,51.894634497458185],[4.587001865367171,51.89506975665208],[4.586608196958622,51.89498877851668],[4.586280139951469,51.895413912099144],[4.5864441684545625,51.89564672164255],[4.585656831637465,51.8963046551344],[4.5853451774804626,51.8964261187256],[4.58514834327616,51.89651721620396],[4.584508633671845,51.89784317160695],[4.584278993767356,51.897812806698084],[4.584098562413118,51.89817718425556],[4.583704894004626,51.8982176704684],[4.583606476902986,51.89806584698192],[4.5832948227458985,51.8983492504081],[4.582410418005594,51.899077798179775]]],"type":"Polygon"},"id":7},{"type":"Feature","properties":{"Name":"Cornelisland"},"geometry":{"coordinates":[[[4.553315072049514,51.87076778101479],[4.563593328891102,51.875350898984976],[4.5638217345985765,51.87558004262209],[4.565477675978514,51.87647897946104],[4.564449850294665,51.87758940603874],[4.563935937452385,51.87743077534972],[4.563479126037322,51.877853789277054],[4.562337097498897,51.87732502124575],[4.561994488937614,51.877254518371785],[4.56170898180369,51.87748365230789],[4.560738257546262,51.87700775744199],[4.5605955039793,51.87683149880627],[4.5591394175928315,51.87642610132133],[4.55902521473908,51.87609120498985],[4.55551347698497,51.87513938074497],[4.555456375558521,51.87450482005448],[4.554656955581379,51.874416685917225],[4.5540288398861435,51.873059398387056],[4.551373623534829,51.873517707848606],[4.550831159979282,51.87415228246843],[4.549546377874691,51.873764487931254],[4.547262320798694,51.872847869367945],[4.54694826295065,51.873059398387056],[4.545263770856678,51.87231904246681],[4.545663480845263,51.872036998910204],[4.545377973711254,51.87173732569278],[4.5466342051026345,51.87133188227929],[4.547633480073159,51.87122611383137],[4.548375798622999,51.871155601394435],[4.549289421453096,51.87097931981813],[4.550088841430238,51.87076778101479],[4.550574203558483,51.870485727729175],[4.551145217827269,51.87023892965291],[4.551516377102644,51.87004501592867],[4.553315072049514,51.87076778101479]]],"type":"Polygon"}},{"type":"Feature","properties":{"Name":"Verenambacht"},"geometry":{"coordinates":[[[4.562723705890448,51.85614500194379],[4.566832850101349,51.857298004630024],[4.565920899035831,51.858570249168],[4.565309355380634,51.85837146333009],[4.564601252201044,51.85914672313086],[4.563978974125348,51.859756320214586],[4.563410345814958,51.86021351225588],[4.563710753224029,51.86034603081956],[4.5632279556008655,51.86077008760023],[4.562981192372632,51.860922482029196],[4.5632708709457575,51.86108150175281],[4.562423292896881,51.86171757502649],[4.5619190376019105,51.861551931810965],[4.561050001881256,51.86220787537047],[4.560974892952373,51.86228075786957],[4.5606422990343845,51.86218137325747],[4.560009297707353,51.86307582686146],[4.55964451728164,51.86299632059465],[4.559193906167451,51.863632366795],[4.559773263313758,51.86383112938816],[4.558711108544287,51.8645069156365],[4.558217576152771,51.864904432722284],[4.557756236202692,51.864798428644434],[4.556994488842349,51.864559918555926],[4.557455828793621,51.86389075850059],[4.557927897579646,51.86321496299604],[4.558636000829694,51.86226829168001],[4.558872035223317,51.86196351142274],[4.559730342108082,51.86078412488715],[4.560416987615895,51.85989625170271],[4.560695932327576,51.859564950421344],[4.5607710341801635,51.859233647528384],[4.5611143569339845,51.85869693166481],[4.561253831802048,51.85818008811535],[4.561307475188414,51.85806081282635],[4.5624125453027204,51.85657650722865],[4.562723705890448,51.85614500194379]]],"type":"Polygon"},"id":9},{"type":"Feature","properties":{"Name":"Ridderpark"},"geometry":{"coordinates":[[[4.609107535948851,51.87244988391856],[4.608398922576384,51.87244130533034],[4.607495787886791,51.87209816046226],[4.6070233789712915,51.87190085097765],[4.605147637692454,51.87104297358897],[4.6043000805217105,51.8707770282752],[4.603577572770149,51.87053681825353],[4.604244503002832,51.86982475957845],[4.605064271413738,51.86901831806736],[4.60630087121973,51.86800595612638],[4.606940012692604,51.86837487031988],[4.60723179466919,51.86834913221887],[4.607676414824084,51.86870088499575],[4.60842671133625,51.86957596533529],[4.609010275289393,51.870605449819124],[4.608954697770571,51.870708396971395],[4.609274268506994,51.87094860607712],[4.609177007847563,51.87134323253656],[4.609107535948851,51.87244988391856]]],"type":"Polygon"},"id":10}]}